[{"OBJECT_NAME":"STARLINK-5976","OBJECT_ID":"2023-058AC","EPOCH":"2026-03-09T22:46:45.092928","MEAN_MOTION":15.05646081,"ECCENTRICITY":0.00020388,"INCLINATION":97.604,"RA_OF_ASC_NODE":71.4425,"ARG_OF_PERICENTER":84.7743,"MEAN_ANOMALY":275.3716,"EPHEMERIS_TYPE":0,"CLASSIFICATION_TYPE":"U","NORAD_CAT_ID":56343,"ELEMENT_SET_NO":999,"REV_AT_EPOCH":15823,"BSTAR":2.4273949e-5,"MEAN_MOTION_DOT":2.89e-6,"MEAN_MOTION_DDOT":0},{"OBJECT_NAME":"OBJECT B","OBJECT_ID":"2025-226B","EPOCH":"2026-03-09T23:02:31.139232","MEAN_MOTION":15.09715314,"ECCENTRICITY":0.00204156,"INCLINATION":97.6443,"RA_OF_ASC_NODE":147.8366,"ARG_OF_PERICENTER":114.3969,"MEAN_ANOMALY":245.9393,"EPHEMERIS_TYPE":0,"CLASSIFICATION_TYPE":"U","NORAD_CAT_ID":65939,"ELEMENT_SET_NO":999,"REV_AT_EPOCH":2260,"BSTAR":0.00038297064,"MEAN_MOTION_DOT":6.14e-5,"MEAN_MOTION_DDOT":0}]
